NORAD_CAT_ID,OBJECT_NAME,OBJECT_TYPE,EPOCH,MEAN_MOTION,ECCENTRICITY,INCLINATION,RA_OF_ASC_NODE,ARG_OF_PERICENTER,MEAN_ANOMALY,BSTAR,MEAN_MOTION_DOT,MEAN_MOTION_DDOT,TLE_LINE0,TLE_LINE1,TLE_LINE2,SEMIMAJOR_AXIS,PERIOD,APOGEE,PERIGEE,DECAYED
55781.0,STARLINK-5820,PAYLOAD,2023-06-07 14:00:01,15.52741275,0.0003246,70.0003,246.2455,275.4125,51.5825,-0.010006,-0.00577638,0.0,0 STARLINK-5820,1 55781U 23028AS  23158.58334491 -.00577638  00000-0 -10006-1 0  9993,2 55781  70.0003 246.2455 0003246 275.4125  51.5825 15.52741275  1306,6786.863,92.739,410.931,406.525,0.0
55781.0,STARLINK-5820,PAYLOAD,2023-06-07 22:00:00,15.5231808,0.0003177,69.9999,245.3322,272.8503,116.6367,-0.010738,-0.00608148,0.0,0 STARLINK-5820,1 55781U 23028AS  23158.91667824 -.00608148  00000-0 -10738-1 0  9992,2 55781  69.9999 245.3322 0003177 272.8503 116.6367 15.52318080 15756,6788.097,92.764,412.118,407.805,0.0
55781.0,STARLINK-5820,PAYLOAD,2023-06-08 14:00:01,15.51305869,0.0003046,70.0001,243.5078,274.6646,238.2694,-0.0020637,-0.00119913,0.0,0 STARLINK-5820,1 55781U 23028AS  23159.58334491 -.00119913  00000-0 -20637-2 0  9994,2 55781  70.0001 243.5078 0003046 274.6646 238.2694 15.51305869 15859,6791.049,92.825,414.983,410.846,0.0
55781.0,STARLINK-5820,PAYLOAD,2023-06-08 22:00:00,15.51238133,0.0002898,69.9998,242.5963,271.6672,302.2226,-0.00068163,-0.00040019,0.0,0 STARLINK-5820,1 55781U 23028AS  23159.91667824 -.00040019  00000-0 -68163-3 0  9997,2 55781  69.9998 242.5963 0002898 271.6672 302.2226 15.51238133 15901,6791.247,92.829,415.08,411.144,0.0
55781.0,STARLINK-5820,PAYLOAD,2023-06-09 09:27:55,15.51886583,0.0002931,69.9973,241.2905,269.785,90.3001,-0.001987,-0.00117907,0.0,0 STARLINK-5820,1 55781U 23028AS  23160.39439470 -.00117907  00000-0 -19870-2 0  9996,2 55781  69.9973 241.2905 0002931 269.7850  90.3001 15.51886583 15982,6789.355,92.79,413.21,409.23,0.0
55781.0,STARLINK-5820,PAYLOAD,2023-06-09 14:00:01,15.51202743,0.0002966,69.9998,240.7738,275.7185,60.0156,0.00066838,0.00039259,0.0,0 STARLINK-5820,1 55781U 23028AS  23160.58334491  .00039259  00000-0  66838-3 0  9992,2 55781  69.9998 240.7738 0002966 275.7185  60.0156 15.51202743 16013,6791.35,92.831,415.23,411.201,0.0
55781.0,STARLINK-5820,PAYLOAD,2023-06-09 22:00:00,15.51261261,0.0002993,69.9999,239.8625,272.7764,123.8562,-0.0021461,-0.00124425,0.0,0 STARLINK-5820,1 55781U 23028AS  23160.91667824 -.00124425  00000-0 -21461-2 0  9992,2 55781  69.9999 239.8625 0002993 272.7764 123.8562 15.51261261  1303,6791.18,92.828,415.077,411.012,0.0
55781.0,STARLINK-5820,PAYLOAD,2023-06-10 06:00:02,15.51283707,0.0003287,70.0003,238.9511,268.9843,188.6179,-0.01231,-0.0066681,0.0,0 STARLINK-5820,1 55781U 23028AS  23161.25002315 -.00666810  00000-0 -12310-1 0  9999,2 55781  70.0003 238.9511 0003287 268.9843 188.6179 15.51283707 16115,6791.114,92.826,415.211,410.747,0.0
55781.0,STARLINK-5820,PAYLOAD,2023-06-10 14:00:01,15.50782824,0.0003511,70.0001,238.0401,274.9112,243.3254,-0.010484,-0.00565063,0.0,0 STARLINK-5820,1 55781U 23028AS  23161.58334491 -.00565063  00000-0 -10484-1 0  9996,2 55781  70.0001 238.0401 0003511 274.9112 243.3254 15.50782824  1309,6792.576,92.856,416.826,412.056,0.0
55781.0,STARLINK-5820,PAYLOAD,2023-06-10 22:00:00,15.50367824,0.0003558,70.0,237.1295,271.2045,307.1805,-0.011471,-0.00606065,0.0,0 STARLINK-5820,1 55781U 23028AS  23161.91667824 -.00606065  00000-0 -11471-1 0  9997,2 55781  70.0000 237.1295 0003558 271.2045 307.1805 15.50367824 16211,6793.788,92.881,418.071,413.236,0.0
55781.0,STARLINK-5820,PAYLOAD,2023-06-11 14:00:01,15.49481233,0.0003697,70.0004,235.3102,273.9509,63.1819,-0.011032,-0.00567613,0.0,0 STARLINK-5820,1 55781U 23028AS  23162.58334491 -.00567613  00000-0 -11032-1 0  9990,2 55781  70.0004 235.3102 0003697 273.9509  63.1819 15.49481233  1307,6796.38,92.934,420.757,415.732,0.0
55781.0,STARLINK-5820,PAYLOAD,2023-06-11 22:00:00,15.49057676,0.0003607,70.0003,234.4015,271.4576,124.2643,-0.011858,-0.00598695,0.0,0 STARLINK-5820,1 55781U 23028AS  23162.91667824 -.00598695  00000-0 -11858-1 0  9996,2 55781  70.0003 234.4015 0003607 271.4576 124.2643 15.49057676 16374,6797.618,92.96,421.935,417.032,0.0
55781.0,STARLINK-5820,PAYLOAD,2023-06-12 14:00:01,15.48178779,0.0003475,70.0004,232.5861,276.0199,235.3795,-0.011511,-0.00565845,0.0,0 STARLINK-5820,1 55781U 23028AS  23163.58335648 -.00565845  00000-0 -11511-1 0  9993,2 55781  70.0004 232.5861 0003475 276.0199 235.3795 15.48178779  1304,6800.191,93.013,424.419,419.693,0.0
55781.0,STARLINK-5820,PAYLOAD,2023-06-12 22:00:00,15.47749326,0.0003416,70.0005,231.6791,272.4089,295.955,-0.012274,-0.00592362,0.0,0 STARLINK-5820,1 55781U 23028AS  23163.91667824 -.00592362  00000-0 -12274-1 0  9995,2 55781  70.0005 231.6791 0003416 272.4089 295.9550 15.47749326 16522,6801.449,93.038,425.637,420.99,0.0
55781.0,STARLINK-5820,PAYLOAD,2023-06-13 00:00:00,15.47614858,0.0003505,70.0005,231.4526,269.6867,42.8571,-0.011091,-0.00536562,0.0,0 STARLINK-5820,1 55781U 23028AS  23164.00001157 -.00536562  00000-0 -11091-1 0  9993,2 55781  70.0005 231.4526 0003505 269.6867  42.8571 15.47614858  1300,6801.843,93.046,426.092,421.324,0.0
55781.0,STARLINK-5820,PAYLOAD,2023-06-13 14:00:01,15.46879828,0.0003402,70.0006,229.8673,275.5494,45.2949,-0.012276,-0.00576007,0.0,0 STARLINK-5820,1 55781U 23028AS  23164.58334491 -.00576007  00000-0 -12276-1 0  9990,2 55781  70.0006 229.8673 0003402 275.5494  45.2949 15.46879828  1308,6803.997,93.091,428.177,423.547,0.0
55781.0,STARLINK-5820,PAYLOAD,2023-06-13 22:00:00,15.4643328,0.0003245,70.0005,228.962,272.207,104.1068,-0.012373,-0.00571927,0.0,0 STARLINK-5820,1 55781U 23028AS  23164.91667824 -.00571927  00000-0 -12373-1 0  9990,2 55781  70.0005 228.9620 0003245 272.2070 104.1068 15.46433280 16680,6805.307,93.117,429.38,424.964,0.0
55781.0,STARLINK-5820,PAYLOAD,2023-06-14 14:00:01,15.45574917,0.0003163,70.0008,227.1536,277.6334,208.0301,-0.012883,-0.00577711,0.0,0 STARLINK-5820,1 55781U 23028AS  23165.58334491 -.00577711  00000-0 -12883-1 0  9998,2 55781  70.0008 227.1536 0003163 277.6334 208.0301 15.45574917 16788,6807.826,93.169,431.845,427.538,0.0
55781.0,STARLINK-5820,PAYLOAD,2023-06-14 22:00:00,15.45126562,0.0003089,70.0005,226.2503,271.7785,267.7873,-0.012755,-0.00564207,0.0,0 STARLINK-5820,1 55781U 23028AS  23165.91667824 -.00564207  00000-0 -12755-1 0  9998,2 55781  70.0005 226.2503 0003089 271.7785 267.7873 15.45126562  1308,6809.143,93.196,433.112,428.905,0.0
55781.0,STARLINK-5820,PAYLOAD,2023-06-15 06:00:00,15.4475701,0.0003151,70.0006,225.3478,269.4517,323.4679,-0.015533,-0.00669378,0.0,0 STARLINK-5820,1 55781U 23028AS  23166.25001157 -.00669378  00000-0 -15533-1 0  9999,2 55781  70.0006 225.3478 0003151 269.4517 323.4679 15.44757010 16887,6810.229,93.219,434.24,429.948,0.0
55781.0,STARLINK-5820,PAYLOAD,2023-06-15 14:00:01,15.4427946,0.0003139,70.0004,224.4456,276.3725,9.4113,-0.013848,-0.00592921,0.0,0 STARLINK-5820,1 55781U 23028AS  23166.58334491 -.00592921  00000-0 -13848-1 0  9991,2 55781  70.0004 224.4456 0003139 276.3725   9.4113 15.44279460  1308,6811.633,93.247,435.636,431.36,0.0
55781.0,STARLINK-5820,PAYLOAD,2023-06-15 20:00:01,15.43960408,0.0003025,70.0002,223.7695,274.1984,320.885,-0.014742,-0.00622037,0.0,0 STARLINK-5820,1 55781U 23028AS  23166.83334491 -.00622037  00000-0 -14742-1 0  9995,2 55781  70.0002 223.7695 0003025 274.1984 320.8850 15.43960408 16975,6812.571,93.267,436.497,432.376,0.0
55781.0,STARLINK-5820,PAYLOAD,2023-06-16 14:00:01,15.4297582,0.0003154,70.0,221.7431,279.1275,162.0866,-0.014548,-0.00595761,0.0,0 STARLINK-5820,1 55781U 23028AS  23167.58334491 -.00595761  00000-0 -14548-1 0  9995,2 55781  70.0000 221.7431 0003154 279.1275 162.0866 15.42975820  1307,6815.469,93.326,439.484,435.185,0.0
55781.0,STARLINK-5820,PAYLOAD,2023-06-16 22:00:00,15.42513884,0.0003121,69.9999,220.8433,270.1304,221.8599,-0.013654,-0.00553515,0.0,0 STARLINK-5820,1 55781U 23028AS  23167.91667824 -.00553515  00000-0 -13654-1 0  9999,2 55781  69.9999 220.8433 0003121 270.1304 221.8599 15.42513884 17145,6816.83,93.354,440.822,436.567,0.0
55781.0,STARLINK-5820,PAYLOAD,2023-06-17 13:00:24,15.42862221,0.0003379,69.9979,219.1606,266.5493,93.5303,-0.0042195,-0.00181588,0.0,0 STARLINK-5820,1 55781U 23028AS  23168.54195458 -.00181588  00000-0 -42195-2 0  9998,2 55781  69.9979 219.1606 0003379 266.5493  93.5303 15.42862221 17249,6815.804,93.333,439.972,435.366,0.0
55781.0,STARLINK-5820,PAYLOAD,2023-06-17 14:00:01,15.41668406,0.0003134,69.9998,219.0457,273.516,318.4362,-0.015074,-0.00591133,0.0,0 STARLINK-5820,1 55781U 23028AS  23168.58334491 -.00591133  00000-0 -15074-1 0  9990,2 55781  69.9998 219.0457 0003134 273.5160 318.4362 15.41668406 17243,6819.322,93.405,443.324,439.05,0.0
55781.0,STARLINK-5820,PAYLOAD,2023-06-17 22:00:01,15.41209307,0.0003212,69.9996,218.1476,267.515,13.7117,-0.014278,-0.00554061,0.0,0 STARLINK-5820,1 55781U 23028AS  23168.91668981 -.00554061  00000-0 -14278-1 0  9995,2 55781  69.9996 218.1476 0003212 267.5150  13.7117 15.41209307  1305,6820.676,93.433,444.732,440.35,0.0
55781.0,STARLINK-5820,PAYLOAD,2023-06-18 06:00:00,15.40833456,0.0003305,69.9997,217.2502,267.1295,62.699,-0.017372,-0.00664814,0.0,0 STARLINK-5820,1 55781U 23028AS  23169.25001157 -.00664814  00000-0 -17372-1 0  9995,2 55781  69.9997 217.2502 0003305 267.1295  62.6990 15.40833456 17356,6821.785,93.456,445.905,441.396,0.0
55781.0,STARLINK-5820,PAYLOAD,2023-06-18 12:22:24,15.41625519,0.0003468,69.9974,216.538,268.8786,91.1998,-0.0044945,-0.00185495,0.0,0 STARLINK-5820,1 55781U 23028AS  23169.51556484 -.00185495  00000-0 -44945-2 0  9992,2 55781  69.9974 216.5380 0003468 268.8786  91.1998 15.41625519 17399,6819.448,93.408,443.678,438.948,0.0
55781.0,STARLINK-5820,PAYLOAD,2023-06-18 22:00:00,15.39899217,0.0003216,69.9993,215.4572,268.7282,156.9145,-0.014629,-0.00544234,0.0,0 STARLINK-5820,1 55781U 23028AS  23169.91667824 -.00544234  00000-0 -14629-1 0  9992,2 55781  69.9993 215.4572 0003216 268.7282 156.9145 15.39899217 17458,6824.544,93.513,448.604,444.214,0.0
